SMCI01 BABJ 280000
AAXX 28001
50468 32959 73401 11050 21065 39913 40125 52004 87/// 333
00351 31004 92510=
50953 31657 81403 10055 20005 39931 40077 57014 705// 88///
333 05402 31050=
51076 32975 12901 11009 21042 39358 40252 57005 81/// 333
05353 31042=
51243 32980 03402 10048 21028 39684 40229 57003 333 05451
30026=
51288 32980 01402 10017 21092 38356 57004 333 05304=
51463 32964 02002 10047 21043 39125 40218 57003 333 05601
31019=
51573 32971 03601 10062 21089 30178 40228 57001 333 05300
30002=
51709 32960 72503 10053 21030 38672 40241 57004 87/// 333
05101 30027=
52533 32/80 92202 11007 21103 38573 40268 57006 333 00054=
52652 32956 01604 11003 21077 38600 40280 57005 333 00005
31040=
52866 31955 00000 11038 21061 37655 52004 710// 333 00351=
52983 32947 03202 11030 21043 38180 52003 333 00351 31024=
53463 32980 02503 11005 21144 38884 40221 52012 333 00101
31031=
53513 31957 01102 11006 21078 39025 40246 52009 705// 333
00553 31043=
53588 32/80 92918 11054 21228 37731 57011 333 05655 31046
91135 91532=
53772 31957 72905 10104 21064 39283 40189 52011 705// 87///
333 05210=
53915 32976 02701 10021 21059 38601 40271 52013 333 00300
31034=
54218 32768 52708 10049 21063 39286 40072 57007 85/// 333
06100 31009=
54337 11545 82902 10132 20063 39959 40039 57015 69902 721//
88/// 333 06205 79999=
54342 32961 51603 10132 20070 39998 40058 57018 85/// 333
06009 31004=
54401 32774 62909 10027 21102 39265 40180 52013 86/// 333
05201 30013 91119 91529=
54471 32960 71604 10141 20076 30049 40055 57021 87/// 333
06101=
54497 32568 71405 10127 20084 30095 40113 57019 87/// 333
05708=
54511 32958 23205 10117 21099 30083 40122 52016 82/// 333
05605 30028=
54823 32980 72701 10146 20031 39939 40142 52024 87/// 333
05501=
56080 32958 02001 11081 21090 37232 52007 333 00553 70006=
56096 12980 00402 10067 20038 39040 40289 52014 69902 333
00551 30040 70017=
57083 32958 22704 10185 21019 30035 40168 52020 82/// 333
05307=