SMCI01 BABJ 050000
AAXX 05001
50468 11658 73410 11041 21093 39924 40135 52025 69951 770//
87/// 333 05903 31011 70028 92503=
50953 32979 02906 10017 21071 30049 40198 52023 333 05702=
51076 32971 12901 10012 21019 39344 40224 52001 81/// 333
05200 31031=
51243 32980 10201 10074 20017 39672 40211 52004 81/// 333
05201 30042=
51288 32980 00903 10023 21060 38355 54000 333 05253=
51463 32965 02003 10053 21043 39117 40209 52001 333 05201
30018=
51573 32968 10201 10090 21039 30135 40184 57001 81/// 333
05301 30028=
51709 32974 22504 10040 21035 38630 40189 57003 82/// 333
05451 30007=
52533 32980 22202 10004 21066 38549 40240 52005 82/// 333
05200=
52652 32936 11402 11032 21061 38563 40238 52004 81/// 333
05251 31038=
52866 32559 72902 11001 21038 37599 57005 87/// 333 05502
31027=
52983 11558 81402 10060 20054 38122 54000 69961 760// 88///
333 05607 30050 70006=
53463 32980 03603 10035 21044 38929 40275 52003 333 05202
31013=
53513 31755 60702 10036 20016 39028 40253 57002 710// 86///
333 05401 31022=
53588 32980 00903 10033 21081 37851 52004 333 05102 31009=
53772 32959 00701 10027 20017 39349 40278 52008 333 05301
30007=
53915 31621 82001 10044 20043 38569 40230 57001 710// 88///
333 05402 30000=
54218 32972 03403 10016 21069 39498 40310 52014 333 00202
31043=
54337 32980 03402 10078 21046 30190 40273 52017 333 05104
31010=
54342 31920 01601 10012 21044 30200 40263 52017 705// 333
05102=
54401 32971 03201 10041 21023 39355 40280 52011 333 05253
31013=
54471 32970 00704 10059 21037 30262 40268 52020 333 05106
31016=
54497 32958 00902 10051 20007 30207 40225 52012 333 05251
31015=
54511 31944 00202 10081 20069 30210 40250 52019 705// 333
05302 30008=
54823 32980 01402 10105 20016 30042 40251 52011 333 05302
30039=
56080 11614 80000 11002 21002 37157 57003 60031 770// 88///
333 05607 30000 70048 92502=
56096 11780 80902 10140 20043 38961 40174 57002 69902 760//
88/// 333 05501 79999=
57083 31916 00000 10090 20089 30108 40244 52006 710// 333
05552=