ZCZC 000     
SMJP99 RJXX 270000
AAXX 27004
47401 22/70 72410 10106 20045 30045 40059 51005 7//00 812// 333
60032 70070=
47407 21/70 72306 10115 20064 39919 40087 50008 70282 80802 333
60032 70030=
47409 22/75 73602 10127 20088 30019 40071 50009 7//00 80232 333
69902 70010=
47412 22/70 72608 10134 20032 30064 40095 50009 7//00 81232 333
69902 79999=
47418 21/58 81504 10121 20112 30031 40079 58002 78082 817// 333
60012 70070=
47420 27/68 /2111 10126 20113 30046 40078 50000 70000 333 69902=
47421 27/70 /2803 10104 20039 30065 40107 51009 70060 333 69952=
47426 27/70 /3009 10147 20086 30051 40097 50008 72360 333 69952=
47430 22/75 72910 10115 20056 30060 40113 51014 7//00 812// 333
60112 70195=
47570 27/70 /2602 10141 20122 39897 40150 51018 76160 333 69902=
47575 21/70 72609 10140 20066 30115 40120 51011 70382 812/2 333
69902 70005=
47582 21/70 72807 10155 20075 30106 40132 50005 70382 812// 333
60012 70025=
47584 21/80 71502 10141 20123 39940 40124 50006 70282 80272 333
69902 79999=
47590 21/75 72701 10173 20136 30077 40129 51008 70282 8123/ 333
69902 79999=
47600 27/70 /2104 10142 20123 30155 40163 51016 76160 333 60012=
47604 21/60 81804 10146 20140 30148 40155 51013 78062 8087/ 333
60012 70020=
47605 21/65 80707 10156 20127 30118 40158 51016 70282 8087/ 333
60042 70040=
47610 27/56 /0704 10142 20108 39659 40149 51011 71000 333 60002=
47624 27/70 /3305 10166 20109 3//// 40133 51017 70000 333 60002=
47629 27/70 /3403 10168 20148 30094 40131 51018 76160 333 69902=
47636 21/70 73102 10179 20138 30076 40142 51009 70282 80832 333
69902 79999=
47648 27/65 /3310 10200 20178 30088 40121 51012 70060 333 69902=
47651 21/65 83003 10182 20129 30123 40145 50006 70262 8017/ 333
69902 79999=
47655 27/70 /2809 10179 20128 30074 40133 53012 70000 333 60002=
47662 22/75 73304 10183 20136 30097 40125 50012 7//00 8027/ 333
60002 70005=
47675 27/70 /2105 10216 20182 30040 40127 51013 70000 333 60002=
47678 27/70 /2607 10219 20177 39960 40136 51008 70060 333 69902=
47740 27/69 /0403 10183 20146 30125 40158 51013 70000 333 60002=
47741 22/80 72505 10179 20130 30137 40163 51015 7//00 80832 333
60002 70010=
47746 21/65 71205 10174 20143 30138 40157 51015 72522 812// 333
69902 70010=
47750 27/64 /1003 10168 20153 30146 40151 53012 70000 333 69902=
47765 22/65 60107 10172 20123 30102 40166 52015 7//00 80231 333
60002 70015=
47772 22/65 73603 10187 20165 30051 40148 51012 7//00 80232 333
69902 79999=
47778 27/70 /2901 10196 20165 30059 40140 50005 70060 333 69902=
47800 27/70 /3210 10164 20076 30175 40180 51013 70000 333 60002=
47807 22/65 51903 10184 20124 30158 40176 53014 7//00 80201 333
60002 70000=
47815 22/80 22405 10194 20115 30153 40169 53013 7//00 80101 333
60002 70000=
47817 22/75 30901 10178 20125 30136 40179 53013 7//00 80232 333
60002 70000=
47827 22/80 73405 10186 20126 30137 40174 53012 7//00 8017/ 333
60002 70000=
47830 22984 72708 10185 20113 30147 40165 53017 7//00 80032 333
60002 70000=
47843 46/// /3103 10186 20109 30154 40186 53012=
47887 22/60 42305 10194 20122 30122 40162 53010 7//00 80202 333
60002 70000=
47891 22/62 62202 10191 20156 30142 40155 51012 7//00 80832 333
69952 70005=
47893 22/70 72903 10193 20137 30144 40150 53009 7//00 80139 333
60002 70000=
47895 22/75 73005 10184 20141 30146 40154 52011 7//00 8027/ 333
60002 70000=
47909 22/70 83508 10224 20158 30170 40179 51016 7//00 8087/ 333
60012 70010=
47918 22/70 10506 10259 20196 30152 40169 53010 7//00 80231 333
60002 70000=
47927 22/80 20406 10253 20197 30125 40173 53013 7//00 80101 333
60002 70000=
47936 22/70 23610 10246 20192 30113 40171 53016 7//00 80271 333
60002 70000=
47945 21/70 50504 10264 20196 30140 40164 53009 702// 80101 333
60002 70000=
47971 27/70 /1707 10277 20250 30151 40160 51008 70000 333 60002=
47991 26/// /0818 10294 20243 30149 40159 58001 333 69902=








NNNN
