ZCZC 000     
SMJP99 RJXX 270000
AAXX 27004
47401 42/70 72410 10106 20045 30045 40059 70000 812//=
47407 41/70 72306 10115 20064 39919 40087 70282 80802=
47409 42/75 73602 10127 20088 30019 40071 70000 80232=
47412 42/70 72608 10134 20032 30064 40095 70000 81232=
47418 41/58 81504 10121 20112 30031 40079 78082 817//=
47420 42/68 /2111 10126 20113 30046 40078 70000=
47421 47/70 /2803 10104 20039 30065 40107 70060=
47426 47/70 /3009 10147 20086 30051 40097 72360=
47430 42/75 72910 10115 20056 30060 40113 70000 812//=
47570 47/70 /2602 10141 20122 39897 40150 76160=
47575 41/70 72609 10140 20066 30115 40120 70382 812/2=
47582 41/70 72807 10155 20075 30106 40132 70382 812//=
47584 41/80 71502 10141 20123 39940 40124 70282 80272=
47590 41/75 72701 10173 20136 30077 40129 70282 8123/=
47600 47/70 /2104 10142 20123 30155 40163 76160=
47604 41/60 81804 10146 20140 30148 40155 78062 8087/=
47605 41/65 80707 10156 20127 30118 40158 70282 8087/=
47610 47/56 /0704 10142 20108 39659 40149 71000=
47624 42/70 /3305 10166 20109 3//// 40133 70000=
47629 47/70 /3403 10168 20148 30094 40131 76160=
47636 41/70 73102 10179 20138 30076 40142 70282 80832=
47648 47/65 /3310 10200 20178 30088 40121 70060=
47651 41/65 83003 10182 20129 30123 40145 70262 8017/=
47655 42/70 /2809 10179 20128 30074 40133 70000=
47662 42/75 73304 10183 20136 30097 40125 70000 8027/=
47675 42/70 /2105 10216 20182 30040 40127 70000=
47678 47/70 /2607 10219 20177 39960 40136 70060=
47740 42/69 /0403 10183 20146 30125 40158 70000=
47741 42/80 72505 10179 20130 30137 40163 70000 80832=
47746 41/65 71205 10174 20143 30138 40157 72522 812//=
47750 42/64 /1003 10168 20153 30146 40151 70000=
47765 42/65 60107 10172 20123 30102 40166 70000 80231=
47772 42/65 73603 10187 20165 30051 40148 70000 80232=
47778 47/70 /2901 10196 20165 30059 40140 70060=
47800 42/70 /3210 10164 20076 30175 40180 70000=
47807 42/65 51903 10184 20124 30158 40176 70000 80201=
47815 42/80 22405 10194 20115 30153 40169 70000 80101=
47817 42/75 30901 10178 20125 30136 40179 70000 80232=
47827 42/80 73405 10186 20126 30137 40174 70000 8017/=
47830 42984 72708 10185 20113 30147 40165 70000 80032=
47843 43/// /3103 10186 20109 30154 40186=
47887 42/60 42305 10194 20122 30122 40162 70000 80202=
47891 42/62 62202 10191 20156 30142 40155 70000 80832=
47893 42/70 72903 10193 20137 30144 40150 70000 80139=
47895 42/75 73005 10184 20141 30146 40154 70000 8027/=
47909 42/70 83508 10224 20158 30170 40179 70000 8087/=
47918 42/70 10506 10259 20196 30152 40169 70000 80231=
47927 42/80 20406 10253 20197 30125 40173 70000 80101=
47936 42/70 23610 10246 20192 30113 40171 70000 80271=
47945 41/70 50504 10264 20196 30140 40164 702// 80101=
47971 42/70 /1707 10277 20250 30151 40160 70000=
47991 43/// /0818 10294 20243 30149 40159=








NNNN
