ZCZC 000     
SMRL99 RJXX 060000
AAXX 06001
10044 46/// /0708 10074 20045 39951 49982 53003=
10046 27485 80503 10071 20054 39946 49982 53003 75165 333 60010
69997=
10091 27179 80508 10067 20055 39923 49973 57001 75766 333 60040
60017=
10113 27473 80307 10084 20070 39975 49994 52009 75765 333 60010
69927=
10131 27263 80405 10071 20064 39974 49989 51009 75165 333 60010
69907=
10170 27264 80803 10068 20058 39958 49973 53004 75766 333 60020
60017=
10253 27266 83403 10082 20073 39952 49973 51008 76165 333 69960
69917=
10264 27257 82802 10082 20076 39859 49963 51004 75765 333 69980
69917=
10268 27263 80203 10069 20065 39883 49962 52003 76165 333 60050
60027=
10291 27361 72304 10088 20075 39897 49963 50000 72365 333 69920
69917=
10315 22260 72002 10084 20075 39927 49990 51005 7//00 81688 333
4/000 60000 60007=
10379 21481 82405 10081 20075 39853 49972 50000 78022 812// 333
4/000 69900 69907=
10382 21475 82504 10090 20073 39925 49969 50000 70382 815// 333
4/000 69910 60007=
10384 26/// /2403 10087 20071 39912 49971 58001 333 69900 69907=
10410 27767 72202 10080 20077 39820 4//// 53006 70031 333 60000
60007=
10427 27002 72604 10033 20030 39006 48325 53004 75165 333 60010
69907=
10430 27564 82202 10072 20061 39805 49995 51006 70010 333 60000
60007=
10453 21/00 92512 10010 20009 38671 48312 53002 74544 333 4/000
69920=
10499 27683 82204 10065 20037 39707 49994 56001 70000 333 60000
60007=
10505 27461 82502 10076 20070 39730 40007 53010 70000 333 60000
60007=
10513 21480 81601 10079 20072 39885 40005 53008 70361 815// 333
4/000 69900 69907=
10532 27756 72302 10069 20069 39759 40003 53006 71065 333 69910
69907=
10544 27001 82306 10037 20037 38936 48331 52003 75165 333 69900
69907=
10554 22684 72004 10054 20037 39616 40001 53003 7//00 815// 333
4/000 60000 60007=
10567 27780 72005 10048 20036 39634 40005 53006 70000 333 60000
60007=
10578 47001 82610 10009 20005 38623 48330 51005 73031=








NNNN
