ZCZC
SMCI99 RJXX 280000
AAXX 28001
50468 42/59 /3501 11050 21065 39913 40125
50953 41657 81403 10055 20005 39931 40077 705//
51076 42975 12601 11009 21042 39358 40252
51243 42980 03302 10048 21028 39684 40229
51288 42980 01202 10017 21092 38356 40240
51463 42964 02101 10047 21043 39125 40218
51573 42971 03401 10062 21089 30178 40228
51709 42961 82402 10053 21030 38672 40241
52533 42/80 /2201 11007 21103 38573 40268
52652 42957 01604 11003 21077 38600 40280
52866 41956 01100 11038 21061 37655 40307 710//
52983 42947 03200 11030 21043 38180 40291
53463 42980 02802 11005 21144 38884 40221
53513 41957 01201 11006 21078 39025 40246 705//
53588 429// /3018 11054 21228 37731 40155
53772 41957 83003 10104 21064 39283 40189 705//
53915 42977 03200 10021 21059 38601 40271
54218 42768 52706 10049 21063 39286 40072
54337 41545 82702 10132 20063 39959 40039 721//
54342 42962 51602 10132 20070 39998 40058
54401 42774 63009 10027 21102 39265 40180
54471 42961 81604 10141 20076 30049 40055
54497 42568 81304 10127 20084 30095 40113
54511 42958 23005 10117 21099 30083 40122
54823 42980 81900 10146 20031 39939 40142
56080 42959 02301 11081 21090 37232 40374
56096 42980 00501 10067 20038 39040 40289
57083 42958 22704 10185 21019 30035 40168
NNNN
