ZCZC 000     
SMCI99 RJXX 050000
AAXX 05001
50468 24659 83209 11041 21093 39924 40135 52025 77070 333 10036
21072 31011 4/003 69905 70028=
50953 44979 02905 10017 21071 30049 40198 52023 70000 333 10070
21009 31056 70000=
51076 44971 12901 10012 21019 39344 40224 52001 70000 333 10159
20008 31031 70000=
51243 44980 10101 10074 20017 39672 40211 52004 70000 333 10154
20054 30042 70000=
51288 44980 00903 10023 21060 38355 40221 54000 70000 333 10109
20008 31051 70000=
51463 44966 02103 10053 21043 39117 40209 52001 70000 333 10125
20046 30018 70000=
51573 44968 10201 10090 21039 30135 40184 57001 70000 333 10196
20082 30028 70000=
51709 44974 22504 10040 21035 38630 40189 57003 70000 333 10171
20037 30007 70000=
52533 44980 22302 10004 21066 38549 40240 52005 70000 333 10132
20000 31060 70000=
52652 44936 11502 11032 21061 38563 40238 52004 70000 333 10152
21032 31038 70000=
52866 44560 82902 11001 21038 37599 40201 57005 70000 333 10108
21016 31027 70000=
52983 44559 81202 10060 20054 38122 40168 54000 76000 333 10118
21010 30050 70006=
53463 44980 03503 10035 21044 38929 40275 52003 70000 333 10126
21004 31013 70000=
53513 44755 60802 10036 20016 39028 40253 57002 71000 333 10153
20020 31022 70000=
53588 44980 01003 10033 21081 37851 40267 52004 70000 333 10069
20003 31009 70000=
53772 44960 00701 10027 20017 39349 40278 52008 70000 333 10163
20009 30007 70000=
53915 44621 81801 10044 20043 38569 40230 57001 71000 333 10130
20024 30000 70000=
54218 44973 03303 10016 21069 39498 40310 52014 70000 333 10160
21008 31043 70000=
54337 44980 03402 10078 21046 30190 40273 52017 70000 333 10127
20031 31010 70000=
54342 44920 01501 10012 21044 30200 40263 52017 70500 333 10110
21044 31060 70000=
54401 44971 03203 10041 21023 39355 40280 52011 70000 333 10137
20033 31013 70000=
54471 44970 00604 10059 21037 30262 40268 52020 70000 333 10098
21001 31016 70000=
54497 44958 01102 10051 20007 30207 40225 52012 70000 333 10167
20015 31015 70000=
54511 44944 00202 10081 20069 30210 40250 52019 70500 333 10160
20044 30008 70000=
54823 44980 01501 10105 20016 30042 40251 52011 70000 333 10175
20074 30039 70000=
56080 44/14 /0000 11002 21002 37157 40193 57003 77000 333 10101
21070 30000 4/002 70048=
56096 44780 81102 10140 20043 38961 40174 57002 76060 333 10184
20125 30107 79999=
57083 44916 00000 10090 20089 30108 40244 52006 71000 333 10186
20077 30056 70000=








NNNN
