ZCZC 000     
SMCI99 RJXX 050000
AAXX 05001
50468 41659 83209 11041 21093 39924 40135 52025 77070=
50953 41979 02905 10017 21071 30049 40198 52023 70000=
51076 41971 12901 10012 21019 39344 40224 52001 70000=
51243 41980 10101 10074 20017 39672 40211 52004 70000=
51288 41980 00903 10023 21060 38355 40221 54000 70000=
51463 41966 02103 10053 21043 39117 40209 52001 70000=
51573 41968 10201 10090 21039 30135 40184 57001 70000=
51709 41974 22504 10040 21035 38630 40189 57003 70000=
52533 41980 22302 10004 21066 38549 40240 52005 70000=
52652 41936 11502 11032 21061 38563 40238 52004 70000=
52866 41560 82902 11001 21038 37599 40201 57005 70000=
52983 41559 81202 10060 20054 38122 40168 54000 76000=
53463 41980 03503 10035 21044 38929 40275 52003 70000=
53513 41755 60802 10036 20016 39028 40253 57002 71000=
53588 41980 01003 10033 21081 37851 40267 52004 70000=
53772 41960 00701 10027 20017 39349 40278 52008 70000=
53915 41621 81801 10044 20043 38569 40230 57001 71000=
54218 41973 03303 10016 21069 39498 40310 52014 70000=
54337 41980 03402 10078 21046 30190 40273 52017 70000=
54342 41920 01501 10012 21044 30200 40263 52017 70500=
54401 41971 03203 10041 21023 39355 40280 52011 70000=
54471 41970 00604 10059 21037 30262 40268 52020 70000=
54497 41958 01102 10051 20007 30207 40225 52012 70000=
54511 41944 00202 10081 20069 30210 40250 52019 70500=
54823 41980 01501 10105 20016 30042 40251 52011 70000=
56080 41/14 /0000 11002 21002 37157 40193 57003 77000=
56096 41780 81102 10140 20043 38961 40174 57002 76060=
57083 41916 00000 10090 20089 30108 40244 52006 71000=








NNNN
