ZCZC
SMCI99 RJXX 280000
AAXX 28001
50468 42/00 /3401 11050 21065 30125 49913
50953 41600 /1303 10055 20005 30077 49931 705//
51076 42900 /2601 11009 21042 30252 49358
51243 42900 /3202 10048 21028 30229 49684
51288 42900 /1202 10017 21092 30240
51463 42900 /2101 10047 21043 30218 49125
51573 42900 /3401 10062 21089 30228 40178
51709 42900 /2302 10053 21030 30241
52533 42/00 /2201 11007 21103 30268
52652 42900 /1604 11003 21077 30280
52866 41900 /1000 11038 21061 30307 710//
52983 42900 /3200 11030 21043 30291
53463 42900 /2702 11005 21144 30221
53513 41900 /1101 11006 21078 30246 49025 705//
53588 42900 /2918 11054 21228 30155
53772 41900 /3003 10104 21064 30189 49283 705//
53915 42900 /3100 10021 21059 30271
54218 42700 /2606 10049 21063 30072 49286
54337 41500 /2702 10132 20063 30039 49959 721//
54342 42900 /1502 10132 20070 30058 49998
54401 42700 /2909 10027 21102 30180 49265
54471 42900 /1604 10141 20076 30055 40049
54497 42500 /1204 10127 20084 30113 40095
54511 42900 /2905 10117 21099 30122 40083
54823 42900 /1800 10146 20031 30142 49939
56080 42900 /2301 11081 21090 30374
56096 42900 /0501 10067 20038 30289 49040
57083 42900 /2604 10185 21019 30168 40035
NNNN
